OBJECT_NAME,OBJECT_ID,EPOCH,MEAN_MOTION,ECCENTRICITY,INCLINATION,RA_OF_ASC_NODE,ARG_OF_PERICENTER,MEAN_ANOMALY,EPHEMERIS_TYPE,CLASSIFICATION_TYPE,NORAD_CAT_ID,ELEMENT_SET_NO,REV_AT_EPOCH,BSTAR,MEAN_MOTION_DOT,MEAN_MOTION_DDOT
DUBAISAT-1,2009-041B,2026-06-03T07:39:28.614816,14.75100900,.00116712,98.0035,287.7304,113.0569,247.1872,0,U,35682,999,90305,.16473908E-3,.1061E-4,0
OCEANSAT-2,2009-051A,2026-06-04T06:15:17.721792,13.99662420,.00145199,98.2321,143.4018,275.8689,84.0822,0,U,35931,999,87752,.18579697E-3,.234E-5,0
WORLDVIEW-2 (WV-2),2009-055A,2026-06-04T06:58:07.292352,14.37895567,.00031527,98.4737,228.9175,256.6126,103.4710,0,U,35946,999,87379,.68780418E-4,.164E-5,0
SMOS,2009-059A,2026-06-04T02:59:01.518432,14.39765405,.00013459,98.4425,342.6506,92.5370,267.5972,0,U,36036,999,87157,.10635763E-3,.29E-5,0
YAOGAN-7,2009-069A,2026-06-03T18:02:46.627584,14.77995556,.0026031,98.0087,40.7010,83.0152,277.4018,0,U,36110,999,88764,.92742922E-4,.62E-5,0
TANDEM-X,2010-030A,2026-06-01T10:46:51.497760,15.19149361,.00017833,97.4445,160.3804,80.8335,279.3101,0,U,36605,999,88425,.38591092E-4,.743E-5,0
CARTOSAT-2B,2010-035A,2026-06-04T06:42:14.498208,14.78642989,.0010246,97.9954,205.9101,228.4976,131.5356,0,U,36795,999,85794,.57447524E-4,.369E-5,0
YAOGAN-10,2010-038A,2026-06-04T08:22:06.256128,14.85307150,.00016015,97.8975,178.8550,88.3901,328.5594,0,U,36834,999,85530,.21820396E-3,.1821E-4,0
COSMO-SKYMED 4,2010-060A,2026-06-04T06:42:01.835424,14.82159989,.00014198,97.8881,339.0660,84.2239,275.9136,0,U,37216,999,84265,.11875312E-3,.893E-5,0
RESOURCESAT-2,2011-015A,2026-06-04T05:00:55.902240,14.21603556,.00101922,98.7646,222.7399,297.2827,62.7312,0,U,37387,999,78433,.70613191E-4,.111E-5,0
HAIYANG-2A,2011-043A,2026-06-04T07:11:31.797312,13.74640890,.00065578,99.3391,158.2588,116.3740,243.8083,0,U,37781,999,74488,-.11784333E-3,-.155E-5,0
RASAT,2011-044D,2026-06-04T07:15:36.966816,14.68153177,.00193553,98.0574,246.8957,231.3096,222.0541,0,U,37791,999,79129,.84311029E-4,.437E-5,0
SRMSAT,2011-058D,2026-06-04T06:57:29.209824,14.11572942,.00119136,19.9702,137.5332,62.8275,26.7062,0,U,37841,999,75599,.69540005E-4,.393E-5,0
PLEIADES 1A,2011-076F,2026-06-04T07:15:33.915168,14.58562541,.00014444,98.1977,230.5774,101.3158,347.9249,0,U,38012,999,77011,.857283E-4,.353E-5,0
ZIYUAN 1-02C (ZY 1-02C),2011-079A,2026-06-04T08:17:23.257248,14.38203774,.00062869,98.4072,222.9216,358.2050,70.6461,0,U,38038,999,75736,.12531096E-3,.338E-5,0
ARIRANG-3 (KOMPSAT-3),2012-025B,2026-06-04T05:40:02.310240,14.62194507,.00060409,98.1171,112.9203,143.0525,217.1094,0,U,38338,999,74945,.11967984E-3,.556E-5,0
EXACTVIEW-1 (ADS-1B),2012-039C,2026-06-03T06:25:43.227552,14.24980263,.00104098,98.9761,271.3447,206.5850,153.4796,0,U,38709,999,72072,.83610537E-4,.149E-5,0
SPOT 6,2012-047A,2026-06-04T07:13:05.678688,14.58555005,.00013889,98.2120,222.7593,93.9803,266.1555,0,U,38755,999,73117,.84559283E-4,.347E-5,0
PLEIADES 1B,2012-068A,2026-06-04T07:40:17.981184,14.58552562,.00015288,98.1947,230.5478,97.3337,262.8036,0,U,39019,999,71897,.10263568E-3,.431E-5,0
GOKTURK 2,2012-073A,2026-06-04T06:20:16.429056,14.75530340,.00019924,97.6819,353.3431,64.3643,295.7773,0,U,39030,999,72260,.1232706E-3,.792E-5,0
LANDSAT 8,2013-008A,2026-06-04T06:03:03.795264,14.57109946,.00014503,98.2303,225.5405,97.6461,262.4902,0,U,39084,999,69601,.10278615E-3,.418E-5,0
SARAL,2013-009A,2026-06-04T06:17:06.756000,14.32852755,.00014439,98.5557,341.9931,4.3826,355.7370,0,U,39086,999,69375,.48584097E-4,.89E-6,0
GAOFEN-1,2013-018A,2026-06-04T07:44:43.510848,14.76522099,.00161064,97.9094,227.6513,311.4739,48.5088,0,U,39150,999,70634,.16549269E-4,.64E-6,0
VNREDSAT 1,2013-021B,2026-06-04T05:56:00.552768,14.64842555,.00016269,97.9083,209.1597,92.5951,267.5439,0,U,39160,999,69839,.11176472E-3,.551E-5,0
ARIRANG-5 (KOMPSAT-5),2013-042A,2026-06-04T07:55:05.239200,15.04540844,.00037445,97.6199,342.2100,157.9462,202.1926,0,U,39227,999,70192,.16243797E-3,.2216E-4,0
SKYSAT-A,2013-066C,2026-06-04T07:03:41.080608,15.12901102,.00212926,97.3816,205.1022,3.4569,356.6806,0,U,39418,999,68653,.22851015E-3,.398E-4,0
DUBAISAT-2,2013-066D,2026-06-04T06:46:38.858880,15.10081695,.00132377,97.4567,145.7661,79.1530,281.1189,0,U,39419,999,68444,.24406059E-3,.3919E-4,0
GPM-CORE,2014-009C,2026-06-04T03:12:23.789952,15.45384193,.00120281,64.9729,351.8702,268.6924,91.2839,0,U,39574,999,69579,.19447322E-3,.9118E-4,0
SENTINEL-1A,2014-016A,2026-06-04T06:29:19.063392,14.59198670,.0001419,98.1775,162.9912,80.4600,279.6760,0,U,39634,999,64813,.411789E-6,-.44E-6,0
KAZEOSAT 1,2014-024A,2026-06-04T07:46:58.332864,14.42074587,.00015035,98.3206,228.0905,79.1407,280.9952,0,U,39731,999,63670,.6369901E-4,.167E-5,0
