DUBAISAT-1              
1 35682U 09041B   26154.31908119  .00001061  00000+0  16474-3 0  9990
2 35682  98.0035 287.7304 0011671 113.0569 247.1872 14.75100900903058
OCEANSAT-2              
1 35931U 09051A   26155.26062178  .00000234  00000+0  18580-3 0  9990
2 35931  98.2321 143.4018 0014519 275.8689  84.0822 13.99662420877529
WORLDVIEW-2 (WV-2)      
1 35946U 09055A   26155.29036218  .00000164  00000+0  68780-4 0  9999
2 35946  98.4737 228.9175 0003152 256.6126 103.4710 14.37895567873795
SMOS                    
1 36036U 09059A   26155.12432313  .00000290  00000+0  10636-3 0  9998
2 36036  98.4425 342.6506 0001345  92.5370 267.5972 14.39765405871577
YAOGAN-7                
1 36110U 09069A   26154.75192856  .00000620  00000+0  92743-4 0  9992
2 36110  98.0087  40.7010 0026031  83.0152 277.4018 14.77995556887648
TANDEM-X                
1 36605U 10030A   26152.44920715  .00000743  00000+0  38591-4 0  9995
2 36605  97.4445 160.3804 0001783  80.8335 279.3101 15.19149361884253
CARTOSAT-2B             
1 36795U 10035A   26155.27933447  .00000369  00000+0  57448-4 0  9996
2 36795  97.9954 205.9101 0010246 228.4976 131.5356 14.78642989857949
YAOGAN-10               
1 36834U 10038A   26155.34868352  .00001821  00000+0  21820-3 0  9991
2 36834  97.8975 178.8550 0001601  88.3901 328.5594 14.85307150855303
COSMO-SKYMED 4          
1 37216U 10060A   26155.27918791  .00000893  00000+0  11875-3 0  9993
2 37216  97.8881 339.0660 0001419  84.2239 275.9136 14.82159989842656
RESOURCESAT-2           
1 37387U 11015A   26155.20898035  .00000111  00000+0  70613-4 0  9993
2 37387  98.7646 222.7399 0010192 297.2827  62.7312 14.21603556784333
HAIYANG-2A              
1 37781U 11043A   26155.29967358 -.00000155  00000+0 -11784-3 0  9999
2 37781  99.3391 158.2588 0006557 116.3740 243.8083 13.74640890744885
RASAT                   
1 37791U 11044D   26155.30251119  .00000437  00000+0  84311-4 0  9992
2 37791  98.0574 246.8957 0019355 231.3096 222.0541 14.68153177791297
SRMSAT                  
1 37841U 11058D   26155.28992141  .00000393  00000+0  69540-4 0  9995
2 37841  19.9702 137.5332 0011913  62.8275  26.7062 14.11572942755996
PLEIADES 1A             
1 38012U 11076F   26155.30247587  .00000353  00000+0  85728-4 0  9998
2 38012  98.1977 230.5774 0001444 101.3158 347.9249 14.58562541770112
ZIYUAN 1-02C (ZY 1-02C) 
1 38038U 11079A   26155.34540807  .00000338  00000+0  12531-3 0  9998
2 38038  98.4072 222.9216 0006286 358.2050  70.6461 14.38203774757364
ARIRANG-3 (KOMPSAT-3)   
1 38338U 12025B   26155.23613785  .00000556  00000+0  11968-3 0  9992
2 38338  98.1171 112.9203 0006040 143.0525 217.1094 14.62194507749454
EXACTVIEW-1 (ADS-1B)    
1 38709U 12039C   26154.26786143  .00000149  00000+0  83611-4 0  9993
2 38709  98.9761 271.3447 0010409 206.5850 153.4796 14.24980263720729
SPOT 6                  
1 38755U 12047A   26155.30076017  .00000347  00000+0  84559-4 0  9993
2 38755  98.2120 222.7593 0001388  93.9803 266.1555 14.58555005731171
PLEIADES 1B             
1 39019U 12068A   26155.31965256  .00000431  00000+0  10264-3 0  9998
2 39019  98.1947 230.5478 0001528  97.3337 262.8036 14.58552562718971
GOKTURK 2               
1 39030U 12073A   26155.26407904  .00000792  00000+0  12327-3 0  9994
2 39030  97.6819 353.3431 0001992  64.3643 295.7773 14.75530340722605
LANDSAT 8               
1 39084U 13008A   26155.25212726  .00000418  00000+0  10279-3 0  9996
2 39084  98.2303 225.5405 0001450  97.6461 262.4902 14.57109946696010
SARAL                   
1 39086U 13009A   26155.26188375  .00000089  00000+0  48584-4 0  9997
2 39086  98.5557 341.9931 0001443   4.3826 355.7370 14.32852755693754
GAOFEN-1                
1 39150U 13018A   26155.32272582  .00000064  00000+0  16549-4 0  9999
2 39150  97.9094 227.6513 0016106 311.4739  48.5088 14.76522099706344
VNREDSAT 1              
1 39160U 13021B   26155.24722862  .00000551  00000+0  11176-3 0  9997
2 39160  97.9083 209.1597 0001626  92.5951 267.5439 14.64842555698391
ARIRANG-5 (KOMPSAT-5)   
1 39227U 13042A   26155.32992175  .00002216  00000+0  16244-3 0  9990
2 39227  97.6199 342.2100 0003744 157.9462 202.1926 15.04540844701926
SKYSAT-A                
1 39418U 13066C   26155.29422547  .00003980  00000+0  22851-3 0  9995
2 39418  97.3816 205.1022 0021292   3.4569 356.6806 15.12901102686530
DUBAISAT-2              
1 39419U 13066D   26155.28239420  .00003919  00000+0  24406-3 0  9991
2 39419  97.4567 145.7661 0013237  79.1530 281.1189 15.10081695684449
GPM-CORE                
1 39574U 14009C   26155.13360868  .00009118  00000+0  19447-3 0  9992
2 39574  64.9729 351.8702 0012028 268.6924  91.2839 15.45384193695794
SENTINEL-1A             
1 39634U 14016A   26155.27035953 -.00000044  00000+0  41179-6 0  9996
2 39634  98.1775 162.9912 0001419  80.4600 279.6760 14.59198670648136
KAZEOSAT 1              
1 39731U 14024A   26155.32428626  .00000167  00000+0  63699-4 0  9996
2 39731  98.3206 228.0905 0001503  79.1407 280.9952 14.42074587636705
